#dP2019  7 13  0  0  0.00000000     289 d+D   IGS14 FIT AIUB
## 2061 518400.00000000   300.00000000 58677 0.0000000000000
+   92   G01G02G03G05G06G07G08G09G10G11G12G13G14G15G16G17G18
+        G19G20G21G22G23G24G25G26G27G28G29G30G31G32R01R02R03
+        R04R05R07R08R09R10R11R12R13R14R15R16R17R18R19R20R21
+        R22R23R24R26E01E02E03E04E05E07E08E09E11E12E13E14E15
+        E18E19E21E24E25E26E27E30E31E33E36C06C07C08C09C10C11
+        C12C13C14C16J01J02J03  0  0  0  0  0  0  0  0  0  0
++         5  5  5  5  5  5  5  5  5  5  5  5  5  5  5  5  5
++         5  5  5  5  5  5  5  5  5  5  5  5  5  5  5  5  5
++         5  5  5  5  5  5  5  5  5  5  5  5  5  5  5  5  5
++         5  5  5  5  5  5  5  5  5  5  5  5  5  5  5  5  5
++         5  5  5  5  5  5  5  5  5  5  5  5  7 10  5  6  5
++         5  5  5  5  5  5  5  0  0  0  0  0  0  0  0  0  0
%c M  cc GPS ccc cccc cccc cccc cccc ccccc ccccc ccccc ccccc
%c cc cc ccc ccc cccc cccc cccc cccc ccccc ccccc ccccc ccccc
%f  1.2500000  1.025000000  0.00000000000  0.000000000000000
%f  0.0000000  0.000000000  0.00000000000  0.000000000000000
%i    0    0    0    0      0      0      0      0         0
%i    0    0    0    0      0      0      0      0         0
/* CODE MGEX orbits and clocks                                                  
/* of DOY 19194                                                                 
/*                                                                              
/* PCV:IGS14      OL/AL:FES2004  NONE     YN ORB:CoN CLK:CoN                    
*  2019  7 13  1 15  0.00000000
PG01 -13953.110540  22383.530086    354.338007    -65.725843
PG02  17845.303183  -7525.102577 -17505.570857   -258.810290
PG03 -13035.788133  13044.044424 -19127.288774    181.421658
PG05  26338.015227  -2534.295552   3242.272957      0.070781
PG06  12479.908419   8081.469306 -21967.161391    151.270722
PG07  -3276.302811  22785.548594  13084.686695    -63.186794
PG08 -10883.203482  10869.419502  21660.571964   -150.980797
PG09   6429.219321  24155.942734  -9003.198470    372.138885
PG10 -17772.095261 -11543.263603  16199.038567    -14.193041
PG11  -9258.013096  23128.020646   9048.368416   -562.603616
PG12  16063.437511 -10859.530012 -18289.787573    224.439957
PG13  15696.933055   -331.252177  21321.835999    -54.880101
PG14 -17226.954734 -14641.767008 -13759.359554    -71.799664
PG15  10279.187540 -12503.586811  20742.188751   -301.266820
PG16 -26556.787360   -566.899180   3330.128919    -55.731404
PG17  15046.735963  20733.609221  -6776.387646     87.682533
PG18 -16802.185477  18311.148845   8695.673404     69.405870
PG19  16663.627577  15781.342079 -13625.029889   -294.897000
PG20  -8770.867384 -14382.977929  20461.610954    525.922197
PG21  -2445.251688 -21171.233877  16748.148134   -155.807838
PG22 -19653.564901  11267.737173 -13567.874011   -730.251150
PG23  -4612.827352  18329.490321 -18154.366909   -177.508838
PG24  14576.922727 -21654.377360   3651.179081    -68.748778
PG25   1595.980851 -15062.796828 -22021.522996   -772.940146
PG26 -25246.502705  -4833.426133  -7065.525050    249.811416
PG27 -17028.585240  -2678.191668  20178.095479   -183.314061
PG28  16267.719466  13147.446678  16913.917355    766.534314
PG29  -2156.591230 -23524.777573 -12163.843760    152.910727
PG30   5694.712594  17120.977970  19458.164690   -141.990690
PG31 -13962.335999  -6384.006341 -21698.047813     24.710688
PG32 -16723.051312 -19413.784238  -7161.821339     -5.306955
PR01 -16802.736667   1423.323826 -19125.763475     46.623038
PR02   2195.262396  13076.468454 -21737.246315    378.018721
PR03  17608.527469  15410.039780 -10059.020954     -1.822996
PR04  22731.064312   8415.556628   7943.178496    313.565937
PR05  14908.879922  -2691.927458  20530.162870     31.782272
PR07 -17923.710976 -15404.482987   9683.925864    -23.346759
PR08 -22791.023092  -8964.058333  -7091.370597     16.753170
PR09   7996.593271 -15323.837031 -18774.329608     79.800919
PR10  -6640.967890  -8539.620171 -23114.553533     54.267467
PR11 -20503.605954   3936.756105 -14600.895831    -72.513303
PR12 -21603.728654  13519.297663   1295.587921     43.086559
PR13  -9848.205710  15653.869969  17547.621620    -25.866123
PR14   7120.249393   8523.057359  22977.882715     40.875183
PR15  20096.253842  -3397.347589  15364.229247    103.034410
PR16  21271.938905 -13898.689831  -1433.694340      7.530376
PR17   5623.264668  21830.420608 -11971.529704    243.168196
PR18  10159.481193   6835.372296 -22360.244502      0.026433
PR19   9493.164303 -11429.282884 -20739.177989    -41.748046
PR20   2979.057985 -24723.087849  -5633.570485   -384.148122
PR21  -5836.739587 -21383.903817  12593.209428    -59.472065
PR22 -10348.266969  -4009.204688  22976.351912    -28.183408
PR23  -7891.333152  16717.192938  17562.688871    240.288717
PR24  -1649.594339  25172.113494   3706.236020   -182.572946
PR26   3782.639114 -23727.155698  -8519.987016    -16.808028
PE01  23467.485775   4483.970801  17481.770556   -645.848693
PE02 -23500.910025  -4443.342632 -17440.192091     69.020745
PE03 -24217.916737 -15814.029553  -6243.857735   -187.610749
PE04  21011.766422  -1026.212928  20836.224179   -322.114199
PE05 -13254.067713 -23525.694447  12129.495329   -466.946386
PE07  -5376.957697  17441.716719 -23291.989955   -225.302182
PE08 -20844.459399   1205.648705 -20966.043543   6324.925810
PE09   5150.445455 -17388.243824  23402.936430   6380.610860
PE11   9868.869193 -27150.855244  -6502.331679   5655.228950
PE12  16892.175944 -11122.413367 -21621.610714   6301.052110
PE13  -9781.749090  27135.402082   6634.429900    389.891117
PE14   2640.092259  23260.626115   9209.333197   -640.616116
PE15 -16728.321165  11583.289623  21498.226452    903.419307
PE18   6835.598414 -23784.678137 -19491.696764   -736.292316
PE19  23761.011961  17088.841544   4433.904363     -5.198105
PE21   4910.478653  15553.815268  24699.738574   -543.859608
PE24  16328.968053 -17440.935434 -17477.667896   5980.177020
PE25  -4810.624189 -15583.837099 -24695.978441   1744.414950
PE26   2830.029440  26838.248301 -12166.720684   4347.204700
PE27 -16496.145084  17451.548997  17305.757561    430.267349
PE30 -28183.978003   9048.106293    -53.438041   4715.544930
PE31  28174.954434  -9094.649134    241.517495   -466.425419
PE33  13893.739829  10785.041916 -23806.123042   -469.837768
PE36  -2917.821582 -26830.198141  12162.415710    688.236950
PC06  -6845.366712  28739.720509 -29611.083442    551.536900
PC07 -21266.771809  24013.994368  27277.626172      0.300432
PC08 -18432.931749  38098.861962     18.909145    168.037462
PC09   5368.472526  36606.439929 -19654.863090   -191.625317
PC10  -4494.609870  26262.654992  32771.762550     18.184460
PC11  -4402.409457  24249.870830  13194.798222    227.159529
PC12 -15900.394702  -2916.345746  22791.682883    858.262611
PC13  -9834.606127  39438.166882 -11634.083340   -838.545040
PC14 -17841.329990   8556.677649 -19625.856377    532.887165
PC16  -4242.590032  30153.543769 -29055.054092   -892.687910
PJ01 -28941.822117  15899.189024 -21540.032147   -273.739229
PJ02 -30160.387447  29031.407281   9487.458256     -1.086317
PJ03 -24481.795149  25493.709093  28033.284444      1.975394
EOF
